STARLINK-31312          
1 59152U 24044A   26068.31670944  .00000647  00000+0  33040-4 0  9992
2 59152  43.0017  58.4291 0001232 266.5226  93.5484 15.27574682114124
FLOCK 4G-18             
1 62680U 25009BZ  26068.19114186  .00011766  00000+0  44319-3 0  9995
2 62680  97.4054 150.5008 0004100 335.7331  24.3715 15.27241676121267
